{
  "type": "FeatureCollection",
  "features": [
    {
      "type": "Feature",
      "properties": {
        "norad_id": 66918,
        "name": "HULIANWANG DIGUI-108",
        "group": "last-30-days",
        "lat": 37.23124518040405,
        "lon": 124.80941630358394,
        "alt_km": 877.5579103172386,
        "timestamp": "2025-12-20T14:38:00.690790+00:00",
        "meta_object_name": "HULIANWANG DIGUI-108",
        "meta_object_id": "2025-285D",
        "meta_epoch": "2025-12-20T05:50:32.419392",
        "meta_mean_motion": 14.03601705,
        "meta_eccentricity": 0.00066071,
        "meta_inclination": 50.0046,
        "meta_ra_of_asc_node": 86.6637,
        "meta_arg_of_pericenter": 305.0306,
        "meta_mean_anomaly": 54.9978,
        "meta_ephemeris_type": 0,
        "meta_classification_type": "U",
        "meta_norad_cat_id": 66918,
        "meta_element_set_no": 999,
        "meta_rev_at_epoch": 196,
        "meta_bstar": 9.0005765e-05,
        "meta_mean_motion_dot": -9e-08,
        "meta_mean_motion_ddot": 0,
        "tle_line1": "1 66918U 25285D   25354.24343078 -.00000009  00000+0  90006-4 0  9990",
        "tle_line2": "2 66918  50.0046  86.6637 0006607 305.0306  54.9978 14.03601705  1964"
      },
      "geometry": {
        "type": "Point",
        "coordinates": [
          124.80941630358394,
          37.23124518040405
        ]
      }
    },
    {
      "type": "Feature",
      "properties": {
        "norad_id": 66919,
        "name": "HULIANWANG DIGUI-109",
        "group": "last-30-days",
        "lat": 41.190988548924615,
        "lon": 132.43889532670437,
        "alt_km": 876.2599996451527,
        "timestamp": "2025-12-20T14:38:00.690800+00:00",
        "meta_object_name": "HULIANWANG DIGUI-109",
        "meta_object_id": "2025-285E",
        "meta_epoch": "2025-12-20T07:31:05.013408",
        "meta_mean_motion": 14.03725518,
        "meta_eccentricity": 0.00078723,
        "meta_inclination": 50.0069,
        "meta_ra_of_asc_node": 86.3711,
        "meta_arg_of_pericenter": 317.7068,
        "meta_mean_anomaly": 42.3228,
        "meta_ephemeris_type": 0,
        "meta_classification_type": "U",
        "meta_norad_cat_id": 66919,
        "meta_element_set_no": 999,
        "meta_rev_at_epoch": 197,
        "meta_bstar": -1.0067143e-05,
        "meta_mean_motion_dot": -1.67e-06,
        "meta_mean_motion_ddot": 0,
        "tle_line1": "1 66919U 25285E   25354.31325247 -.00000167  00000+0 -10067-4 0  9992",
        "tle_line2": "2 66919  50.0069  86.3711 0007872 317.7068  42.3228 14.03725518  1979"
      },
      "geometry": {
        "type": "Point",
        "coordinates": [
          132.43889532670437,
          41.190988548924615
        ]
      }
    },
    {
      "type": "Feature",
      "properties": {
        "norad_id": 66920,
        "name": "HULIANWANG DIGUI-110",
        "group": "last-30-days",
        "lat": 43.35051055239155,
        "lon": 137.5655001788981,
        "alt_km": 876.2776458466096,
        "timestamp": "2025-12-20T14:38:00.690810+00:00",
        "meta_object_name": "HULIANWANG DIGUI-110",
        "meta_object_id": "2025-285F",
        "meta_epoch": "2025-12-20T07:29:49.516224",
        "meta_mean_motion": 14.03682144,
        "meta_eccentricity": 0.00055775,
        "meta_inclination": 50.0103,
        "meta_ra_of_asc_node": 86.3725,
        "meta_arg_of_pericenter": 314.825,
        "meta_mean_anomaly": 45.22,
        "meta_ephemeris_type": 0,
        "meta_classification_type": "U",
        "meta_norad_cat_id": 66920,
        "meta_element_set_no": 999,
        "meta_rev_at_epoch": 197,
        "meta_bstar": 8.6766466e-05,
        "meta_mean_motion_dot": -1.4e-07,
        "meta_mean_motion_ddot": 0,
        "tle_line1": "1 66920U 25285F   25354.31237866 -.00000014  00000+0  86766-4 0  9992",
        "tle_line2": "2 66920  50.0103  86.3725 0005577 314.8250  45.2200 14.03682144  1975"
      },
      "geometry": {
        "type": "Point",
        "coordinates": [
          137.5655001788981,
          43.35051055239155
        ]
      }
    },
    {
      "type": "Feature",
      "properties": {
        "norad_id": 66921,
        "name": "HULIANWANG DIGUI-111",
        "group": "last-30-days",
        "lat": 45.32796132511533,
        "lon": 143.25215383536695,
        "alt_km": 876.4599934283424,
        "timestamp": "2025-12-20T14:38:00.690820+00:00",
        "meta_object_name": "HULIANWANG DIGUI-111",
        "meta_object_id": "2025-285G",
        "meta_epoch": "2025-12-20T07:28:31.490112",
        "meta_mean_motion": 14.03631389,
        "meta_eccentricity": 0.00066484,
        "meta_inclination": 50.0119,
        "meta_ra_of_asc_node": 86.3707,
        "meta_arg_of_pericenter": 318.6137,
        "meta_mean_anomaly": 41.4264,
        "meta_ephemeris_type": 0,
        "meta_classification_type": "U",
        "meta_norad_cat_id": 66921,
        "meta_element_set_no": 999,
        "meta_rev_at_epoch": 197,
        "meta_bstar": -9.680769e-06,
        "meta_mean_motion_dot": -1.67e-06,
        "meta_mean_motion_ddot": 0,
        "tle_line1": "1 66921U 25285G   25354.31147558 -.00000167  00000+0 -96808-5 0  9990",
        "tle_line2": "2 66921  50.0119  86.3707 0006648 318.6137  41.4264 14.03631389  1972"
      },
      "geometry": {
        "type": "Point",
        "coordinates": [
          143.25215383536695,
          45.32796132511533
        ]
      }
    },
    {
      "type": "Feature",
      "properties": {
        "norad_id": 66922,
        "name": "HULIANWANG DIGUI-112",
        "group": "last-30-days",
        "lat": 47.199760702098956,
        "lon": 150.153773865711,
        "alt_km": 875.609333590176,
        "timestamp": "2025-12-20T14:38:00.690833+00:00",
        "meta_object_name": "HULIANWANG DIGUI-112",
        "meta_object_id": "2025-285H",
        "meta_epoch": "2025-12-20T07:27:04.664160",
        "meta_mean_motion": 14.03661367,
        "meta_eccentricity": 0.00064739,
        "meta_inclination": 50.0092,
        "meta_ra_of_asc_node": 86.3587,
        "meta_arg_of_pericenter": 329.2983,
        "meta_mean_anomaly": 30.7542,
        "meta_ephemeris_type": 0,
        "meta_classification_type": "U",
        "meta_norad_cat_id": 66922,
        "meta_element_set_no": 999,
        "meta_rev_at_epoch": 197,
        "meta_bstar": 4.546504e-06,
        "meta_mean_motion_dot": -1.44e-06,
        "meta_mean_motion_ddot": 0,
        "tle_line1": "1 66922U 25285H   25354.31047065 -.00000144  00000+0  45465-5 0  9990",
        "tle_line2": "2 66922  50.0092  86.3587 0006473 329.2983  30.7542 14.03661367  1971"
      },
      "geometry": {
        "type": "Point",
        "coordinates": [
          150.153773865711,
          47.199760702098956
        ]
      }
    },
    {
      "type": "Feature",
      "properties": {
        "norad_id": 66923,
        "name": "HULIANWANG DIGUI-113",
        "group": "last-30-days",
        "lat": 48.74555508981377,
        "lon": 158.2585931929673,
        "alt_km": 875.7112078465698,
        "timestamp": "2025-12-20T14:38:00.690844+00:00",
        "meta_object_name": "HULIANWANG DIGUI-113",
        "meta_object_id": "2025-285J",
        "meta_epoch": "2025-12-20T07:25:28.791264",
        "meta_mean_motion": 14.03699404,
        "meta_eccentricity": 0.00050894,
        "meta_inclination": 50.009,
        "meta_ra_of_asc_node": 86.3542,
        "meta_arg_of_pericenter": 323.874,
        "meta_mean_anomaly": 36.182,
        "meta_ephemeris_type": 0,
        "meta_classification_type": "U",
        "meta_norad_cat_id": 66923,
        "meta_element_set_no": 999,
        "meta_rev_at_epoch": 197,
        "meta_bstar": -1.1448333e-05,
        "meta_mean_motion_dot": -1.7e-06,
        "meta_mean_motion_ddot": 0,
        "tle_line1": "1 66923U 25285J   25354.30936101 -.00000170  00000+0 -11448-4 0  9991",
        "tle_line2": "2 66923  50.0090  86.3542 0005089 323.8740  36.1820 14.03699404  1976"
      },
      "geometry": {
        "type": "Point",
        "coordinates": [
          158.2585931929673,
          48.74555508981377
        ]
      }
    },
    {
      "type": "Feature",
      "properties": {
        "norad_id": 66924,
        "name": "CZ-8A R/B",
        "group": "last-30-days",
        "lat": -48.21769658417646,
        "lon": 12.699724717034211,
        "alt_km": 867.2496638607563,
        "timestamp": "2025-12-20T14:38:00.690854+00:00",
        "meta_object_name": "CZ-8A R/B",
        "meta_object_id": "2025-285K",
        "meta_epoch": "2025-12-20T04:56:24.079200",
        "meta_mean_motion": 14.30504473,
        "meta_eccentricity": 0.01192723,
        "meta_inclination": 50.0076,
        "meta_ra_of_asc_node": 84.3733,
        "meta_arg_of_pericenter": 133.0659,
        "meta_mean_anomaly": 228.0316,
        "meta_ephemeris_type": 0,
        "meta_classification_type": "U",
        "meta_norad_cat_id": 66924,
        "meta_element_set_no": 999,
        "meta_rev_at_epoch": 199,
        "meta_bstar": 4.5870104e-05,
        "meta_mean_motion_dot": -3.7e-07,
        "meta_mean_motion_ddot": 0,
        "tle_line1": "1 66924U 25285K   25354.20583425 -.00000037  00000+0  45870-4 0  9995",
        "tle_line2": "2 66924  50.0076  84.3733 0119272 133.0659 228.0316 14.30504473  1996"
      },
      "geometry": {
        "type": "Point",
        "coordinates": [
          12.699724717034211,
          -48.21769658417646
        ]
      }
    }
  ]
}